start=new Date('2022-08-07T00:00:00.000Z').valueOf();
sats=[{"OBJECT_ID":"2021-041AL","REV_AT_EPOCH":"6781","ECCENTRICITY":"0.00016710","PERIAPSIS":"546.057","ELEMENT_SET_NO":"999","LAUNCH_DATE":"2021-05-15","PERIOD":"95.592","FILE":"3530745","MEAN_MOTION_DDOT":"0.0000000000000","RCS_SIZE":"LARGE","CENTER_NAME":"EARTH","BSTAR":"0.00003539400000","MEAN_MOTION_DOT":"0.00000246","MEAN_ELEMENT_THEORY":"SGP4","REF_FRAME":"TEME","NORAD_CAT_ID":"48587","SITE":"AFETR","EPHEMERIS_TYPE":"0","ARG_OF_PERICENTER":"61.2279","EPOCH":"2022-08-06T09:32:22.984800","OBJECT_NAME":"STARLINK-2242","TIME_SYSTEM":"UTC","OBJECT_TYPE":"PAYLOAD","RA_OF_ASC_NODE":"268.2466","TLE_LINE2":"2 48587  53.0544 268.2466 0001671  61.2279 298.8878 15.06399684 67814","MEAN_MOTION":"15.06399684","COUNTRY_CODE":"US","GP_ID":"209702447","APOAPSIS":"548.372","INCLINATION":"53.0544","TLE_LINE1":"1 48587U 21041AL  22218.39748825  .00000246  00000-0  35394-4 0  9991","DECAY_DATE":null,"CLASSIFICATION_TYPE":"U","SEMIMAJOR_AXIS":"6925.350","MEAN_ANOMALY":"298.8878"},{"TLE_LINE2":"2 48588  53.0539 256.2536 0001362  82.3579 277.7565 15.06396641 67626","COUNTRY_CODE":"US","MEAN_MOTION":"15.06396641","RA_OF_ASC_NODE":"256.2536","OBJECT_TYPE":"PAYLOAD","TIME_SYSTEM":"UTC","OBJECT_NAME":"STARLINK-2244","CLASSIFICATION_TYPE":"U","SEMIMAJOR_AXIS":"6925.359","MEAN_ANOMALY":"277.7565","APOAPSIS":"548.167","INCLINATION":"53.0539","GP_ID":"209725386","DECAY_DATE":null,"TLE_LINE1":"1 48588U 21041AM  22218.84072119  .00001412  00000-0  11368-3 0  9998","BSTAR":"0.00011368000000","CENTER_NAME":"EARTH","MEAN_MOTION_DOT":"0.00001412","RCS_SIZE":"LARGE","MEAN_MOTION_DDOT":"0.0000000000000","MEAN_ELEMENT_THEORY":"SGP4","REF_FRAME":"TEME","NORAD_CAT_ID":"48588","OBJECT_ID":"2021-041AM","REV_AT_EPOCH":"6762","FILE":"3530813","ECCENTRICITY":"0.00013620","PERIAPSIS":"546.281","LAUNCH_DATE":"2021-05-15","PERIOD":"95.592","ELEMENT_SET_NO":"999","ARG_OF_PERICENTER":"82.3579","EPOCH":"2022-08-06T20:10:38.310816","EPHEMERIS_TYPE":"0","SITE":"AFETR"},{"BSTAR":"0.00007468700000","CENTER_NAME":"EARTH","MEAN_MOTION_DOT":"0.00000831","RCS_SIZE":"LARGE","MEAN_MOTION_DDOT":"0.0000000000000","REF_FRAME":"TEME","MEAN_ELEMENT_THEORY":"SGP4","NORAD_CAT_ID":"48589","OBJECT_ID":"2021-041AN","REV_AT_EPOCH":"6762","FILE":"3530813","ECCENTRICITY":"0.00013850","PERIAPSIS":"546.255","PERIOD":"95.592","LAUNCH_DATE":"2021-05-15","ELEMENT_SET_NO":"999","ARG_OF_PERICENTER":"73.1642","EPOCH":"2022-08-06T20:05:19.875840","EPHEMERIS_TYPE":"0","SITE":"AFETR","TLE_LINE2":"2 48589  53.0530 256.2770 0001385  73.1642 286.9499 15.06399962 67629","COUNTRY_CODE":"US","MEAN_MOTION":"15.06399962","TIME_SYSTEM":"UTC","OBJECT_TYPE":"PAYLOAD","RA_OF_ASC_NODE":"256.2770","OBJECT_NAME":"STARLINK-2245","CLASSIFICATION_TYPE":"U","SEMIMAJOR_AXIS":"6925.349","MEAN_ANOMALY":"286.9499","APOAPSIS":"548.173","INCLINATION":"53.0530","GP_ID":"209725637","DECAY_DATE":null,"TLE_LINE1":"1 48589U 21041AN  22218.83703560  .00000831  00000-0  74687-4 0  9997"},{"APOAPSIS":"547.964","INCLINATION":"53.0543","GP_ID":"209724385","DECAY_DATE":null,"TLE_LINE1":"1 48591U 21041AQ  22218.82134669  .00000032  00000-0  21061-4 0  9998","CLASSIFICATION_TYPE":"U","SEMIMAJOR_AXIS":"6925.323","MEAN_ANOMALY":"296.7969","RA_OF_ASC_NODE":"256.3492","OBJECT_TYPE":"PAYLOAD","TIME_SYSTEM":"UTC","OBJECT_NAME":"STARLINK-2248","TLE_LINE2":"2 48591  53.0543 256.3492 0001120  63.3135 296.7969 15.06408251 68526","COUNTRY_CODE":"US","MEAN_MOTION":"15.06408251","EPHEMERIS_TYPE":"0","SITE":"AFETR","ARG_OF_PERICENTER":"63.3135","EPOCH":"2022-08-06T19:42:44.354016","OBJECT_ID":"2021-041AQ","REV_AT_EPOCH":"6852","FILE":"3530813","PERIAPSIS":"546.413","ECCENTRICITY":"0.00011200","PERIOD":"95.592","LAUNCH_DATE":"2021-05-15","ELEMENT_SET_NO":"999","CENTER_NAME":"EARTH","BSTAR":"0.00002106100000","MEAN_MOTION_DOT":"0.00000032","RCS_SIZE":"LARGE","MEAN_MOTION_DDOT":"0.0000000000000","MEAN_ELEMENT_THEORY":"SGP4","REF_FRAME":"TEME","NORAD_CAT_ID":"48591"},{"OBJECT_TYPE":"PAYLOAD","RA_OF_ASC_NODE":"266.3247","TIME_SYSTEM":"UTC","OBJECT_NAME":"STARLINK-2249","COUNTRY_CODE":"US","MEAN_MOTION":"15.06388355","TLE_LINE2":"2 48592  53.0545 266.3247 0001407  64.7483 295.3652 15.06388355 67487","TLE_LINE1":"1 48592U 21041AR  22218.83148825 -.00000472  00000-0 -12823-4 0  9995","DECAY_DATE":null,"APOAPSIS":"548.224","INCLINATION":"53.0545","GP_ID":"209724635","MEAN_ANOMALY":"295.3652","CLASSIFICATION_TYPE":"U","SEMIMAJOR_AXIS":"6925.384","FILE":"3530813","ECCENTRICITY":"0.00014070","PERIAPSIS":"546.275","LAUNCH_DATE":"2021-05-15","ELEMENT_SET_NO":"999","PERIOD":"95.593","OBJECT_ID":"2021-041AR","REV_AT_EPOCH":"6748","MEAN_ELEMENT_THEORY":"SGP4","REF_FRAME":"TEME","NORAD_CAT_ID":"48592","CENTER_NAME":"EARTH","BSTAR":"-0.00001282300000","MEAN_MOTION_DOT":"-0.00000472","RCS_SIZE":"LARGE","MEAN_MOTION_DDOT":"0.0000000000000","EPHEMERIS_TYPE":"0","SITE":"AFETR","ARG_OF_PERICENTER":"64.7483","EPOCH":"2022-08-06T19:57:20.584800"},{"MEAN_ANOMALY":"286.8953","SEMIMAJOR_AXIS":"6925.369","CLASSIFICATION_TYPE":"U","DECAY_DATE":null,"TLE_LINE1":"1 48593U 21041AS  22218.83610928  .00002789  00000-0  20606-3 0  9992","INCLINATION":"53.0541","APOAPSIS":"548.030","GP_ID":"209725887","COUNTRY_CODE":"US","MEAN_MOTION":"15.06393339","TLE_LINE2":"2 48593  53.0541 266.2801 0001149  73.2161 286.8953 15.06393339 67487","RA_OF_ASC_NODE":"266.2801","OBJECT_TYPE":"PAYLOAD","TIME_SYSTEM":"UTC","OBJECT_NAME":"STARLINK-2250","EPOCH":"2022-08-06T20:03:59.841792","ARG_OF_PERICENTER":"73.2161","EPHEMERIS_TYPE":"0","SITE":"AFETR","NORAD_CAT_ID":"48593","REF_FRAME":"TEME","MEAN_ELEMENT_THEORY":"SGP4","MEAN_MOTION_DOT":"0.00002789","CENTER_NAME":"EARTH","BSTAR":"0.00020606000000","MEAN_MOTION_DDOT":"0.0000000000000","RCS_SIZE":"LARGE","FILE":"3530813","ELEMENT_SET_NO":"999","LAUNCH_DATE":"2021-05-15","PERIOD":"95.593","ECCENTRICITY":"0.00011490","PERIAPSIS":"546.438","REV_AT_EPOCH":"6748","OBJECT_ID":"2021-041AS"},{"DECAY_DATE":null,"TLE_LINE1":"1 48594U 21041AT  22218.46661629  .00001026  00000-0  87769-4 0  9993","INCLINATION":"53.0544","APOAPSIS":"547.968","GP_ID":"209694033","MEAN_ANOMALY":"281.1528","SEMIMAJOR_AXIS":"6925.356","CLASSIFICATION_TYPE":"U","OBJECT_TYPE":"PAYLOAD","TIME_SYSTEM":"UTC","RA_OF_ASC_NODE":"238.0173","OBJECT_NAME":"STARLINK-2251","COUNTRY_CODE":"US","MEAN_MOTION":"15.06397498","TLE_LINE2":"2 48594  53.0544 238.0173 0001079  78.9582 281.1528 15.06397498 67858","EPHEMERIS_TYPE":"0","SITE":"AFETR","EPOCH":"2022-08-06T11:11:55.647456","ARG_OF_PERICENTER":"78.9582","FILE":"3530579","LAUNCH_DATE":"2021-05-15","PERIOD":"95.592","ELEMENT_SET_NO":"999","PERIAPSIS":"546.474","ECCENTRICITY":"0.00010790","REV_AT_EPOCH":"6785","OBJECT_ID":"2021-041AT","NORAD_CAT_ID":"48594","REF_FRAME":"TEME","MEAN_ELEMENT_THEORY":"SGP4","MEAN_MOTION_DOT":"0.00001026","BSTAR":"0.00008776900000","CENTER_NAME":"EARTH","MEAN_MOTION_DDOT":"0.0000000000000","RCS_SIZE":"LARGE"},{"EPHEMERIS_TYPE":"0","SITE":"AFETR","EPOCH":"2022-08-06T13:15:18.986976","ARG_OF_PERICENTER":"76.6692","REV_AT_EPOCH":"6871","OBJECT_ID":"2021-041AU","FILE":"3530579","ELEMENT_SET_NO":"999","LAUNCH_DATE":"2021-05-15","PERIOD":"95.593","PERIAPSIS":"546.156","ECCENTRICITY":"0.00015660","MEAN_MOTION_DOT":"-0.00000647","BSTAR":"-0.00002454700000","CENTER_NAME":"EARTH","RCS_SIZE":"LARGE","MEAN_MOTION_DDOT":"0.0000000000000","NORAD_CAT_ID":"48595","REF_FRAME":"TEME","MEAN_ELEMENT_THEORY":"SGP4","INCLINATION":"53.0547","APOAPSIS":"548.325","GP_ID":"209695285","TLE_LINE1":"1 48595U 21041AU  22218.55230309 -.00000647  00000-0 -24547-4 0  9996","DECAY_DATE":null,"SEMIMAJOR_AXIS":"6925.376","CLASSIFICATION_TYPE":"U","MEAN_ANOMALY":"283.4472","OBJECT_TYPE":"PAYLOAD","RA_OF_ASC_NODE":"267.5497","TIME_SYSTEM":"UTC","OBJECT_NAME":"STARLINK-2252","TLE_LINE2":"2 48595  53.0547 267.5497 0001566  76.6692 283.4472 15.06391111 68711","COUNTRY_CODE":"US","MEAN_MOTION":"15.06391111"},{"MEAN_MOTION":"15.06390170","COUNTRY_CODE":"US","TLE_LINE2":"2 48596  53.0542 266.2621 0001335  73.4263 286.6873 15.06390170 67943","OBJECT_NAME":"STARLINK-2253","OBJECT_TYPE":"PAYLOAD","RA_OF_ASC_NODE":"266.2621","TIME_SYSTEM":"UTC","MEAN_ANOMALY":"286.6873","CLASSIFICATION_TYPE":"U","SEMIMAJOR_AXIS":"6925.379","DECAY_DATE":null,"TLE_LINE1":"1 48596U 21041AV  22218.83980511 -.00000223  00000-0  39260-5 0  9993","GP_ID":"209725136","APOAPSIS":"548.168","INCLINATION":"53.0542","MEAN_ELEMENT_THEORY":"SGP4","REF_FRAME":"TEME","NORAD_CAT_ID":"48596","MEAN_MOTION_DDOT":"0.0000000000000","RCS_SIZE":"LARGE","CENTER_NAME":"EARTH","BSTAR":"0.00000392600000","MEAN_MOTION_DOT":"-0.00000223","ECCENTRICITY":"0.00013350","PERIAPSIS":"546.319","LAUNCH_DATE":"2021-05-15","ELEMENT_SET_NO":"999","PERIOD":"95.593","FILE":"3530813","OBJECT_ID":"2021-041AV","REV_AT_EPOCH":"6794","ARG_OF_PERICENTER":"73.4263","EPOCH":"2022-08-06T20:09:19.161504","SITE":"AFETR","EPHEMERIS_TYPE":"0"},{"ARG_OF_PERICENTER":"81.7408","EPOCH":"2022-08-06T15:33:17.705376","EPHEMERIS_TYPE":"0","SITE":"AFETR","CENTER_NAME":"EARTH","BSTAR":"0.00017581000000","MEAN_MOTION_DOT":"0.00002338","RCS_SIZE":"LARGE","MEAN_MOTION_DDOT":"0.0000000000000","MEAN_ELEMENT_THEORY":"SGP4","REF_FRAME":"TEME","NORAD_CAT_ID":"48597","OBJECT_ID":"2021-041AW","REV_AT_EPOCH":"6872","FILE":"3530813","ECCENTRICITY":"0.00011910","PERIAPSIS":"546.381","LAUNCH_DATE":"2021-05-15","ELEMENT_SET_NO":"999","PERIOD":"95.592","CLASSIFICATION_TYPE":"U","SEMIMAJOR_AXIS":"6925.340","MEAN_ANOMALY":"278.3716","APOAPSIS":"548.030","INCLINATION":"53.0529","GP_ID":"209725387","DECAY_DATE":null,"TLE_LINE1":"1 48597U 21041AW  22218.64812159  .00002338  00000-0  17581-3 0  9993","TLE_LINE2":"2 48597  53.0529 267.1174 0001191  81.7408 278.3716 15.06402640 68722","COUNTRY_CODE":"US","MEAN_MOTION":"15.06402640","TIME_SYSTEM":"UTC","OBJECT_TYPE":"PAYLOAD","RA_OF_ASC_NODE":"267.1174","OBJECT_NAME":"STARLINK-2255"}];
